NORAD_CAT_ID,OBJECT_NAME,OBJECT_TYPE,EPOCH,MEAN_MOTION,ECCENTRICITY,INCLINATION,RA_OF_ASC_NODE,ARG_OF_PERICENTER,MEAN_ANOMALY,BSTAR,MEAN_MOTION_DOT,MEAN_MOTION_DDOT,TLE_LINE0,TLE_LINE1,TLE_LINE2,SEMIMAJOR_AXIS,PERIOD,APOGEE,PERIGEE,DECAYED
51857.0,STARLINK-3571,PAYLOAD,2023-02-03 10:44:20,15.08846411,0.0001288,53.2166,52.9786,84.4098,275.7041,4.847e-05,4.84e-06,0.0,0 STARLINK-3571,1 51857U 22022F   23034.44746315  .00000484  00000-0  48470-4 0  9993,2 51857  53.2166  52.9786 0001288  84.4098 275.7041 15.08846411 52393,6917.861,95.437,540.617,538.835,0.0
51857.0,STARLINK-3571,PAYLOAD,2023-02-04 07:24:21,15.08845231,0.0001237,53.2169,49.1131,88.9872,271.1262,0.00015261,2.142e-05,0.0,0 STARLINK-3571,1 51857U 22022F   23035.30858116  .00002142  00000-0  15261-3 0  9996,2 51857  53.2169  49.1131 0001237  88.9872 271.1262 15.08845231 52520,6917.864,95.437,540.585,538.874,0.0
51857.0,STARLINK-3571,PAYLOAD,2023-02-05 04:04:22,15.08839364,0.000136,53.2177,45.2474,106.2168,253.8974,2.8267e-05,1.62e-06,0.0,0 STARLINK-3571,1 51857U 22022F   23036.16970787  .00000162  00000-0  28267-4 0  9991,2 51857  53.2177  45.2474 0001360 106.2168 253.8974 15.08839364 52656,6917.882,95.438,540.688,538.807,0.0
51857.0,STARLINK-3571,PAYLOAD,2023-02-05 07:15:09,15.08839742,0.0001282,53.2178,44.6526,101.399,258.7146,4.6424e-07,-2.8e-06,0.0,0 STARLINK-3571,1 51857U 22022F   23036.30218813 -.00000280  00000-0  46424-6 0  9991,2 51857  53.2178  44.6526 0001282 101.3990 258.7146 15.08839742 52677,6917.881,95.438,540.633,538.859,0.0
51857.0,STARLINK-3571,PAYLOAD,2023-02-06 10:16:41,15.088508,0.0001223,53.218,39.5974,107.2526,252.86,6.541e-05,7.54e-06,0.0,0 STARLINK-3571,1 51857U 22022F   23037.42825949  .00000754  00000-0  65410-4 0  9998,2 51857  53.2180  39.5974 0001223 107.2526 252.8600 15.08850800 52842,6917.847,95.437,540.558,538.866,0.0
51857.0,STARLINK-3571,PAYLOAD,2023-02-07 05:21:19,15.08842035,0.0001093,53.2178,36.0289,103.4013,256.7101,7.3221e-05,8.78e-06,0.0,0 STARLINK-3571,1 51857U 22022F   23038.22314570  .00000878  00000-0  73221-4 0  9996,2 51857  53.2178  36.0289 0001093 103.4013 256.7101 15.08842035 52967,6917.874,95.437,540.495,538.983,0.0
51857.0,STARLINK-3571,PAYLOAD,2023-02-07 10:07:27,15.08872335,0.0001224,53.2186,35.1377,115.9353,244.1766,-0.00022383,-3.852e-05,0.0,0 STARLINK-3571,1 51857U 22022F   23038.42185046 -.00003852  00000-0 -22383-3 0  9991,2 51857  53.2186  35.1377 0001224 115.9353 244.1766 15.08872335 52992,6917.782,95.436,540.493,538.8,0.0
51857.0,STARLINK-3571,PAYLOAD,2023-02-07 22:50:33,15.08855448,9.51e-05,53.2177,32.7582,98.6454,261.4646,0.00011084,1.477e-05,0.0,0 STARLINK-3571,1 51857U 22022F   23038.95177536  .00001477  00000-0  11084-3 0  9999,2 51857  53.2177  32.7582 0000951  98.6454 261.4646 15.08855448 53073,6917.833,95.437,540.356,539.04,0.0
51857.0,STARLINK-3571,PAYLOAD,2023-02-08 06:47:29,15.08851153,0.0001385,53.2174,31.2716,103.8706,256.2441,9.5941e-05,1.24e-05,0.0,0 STARLINK-3571,1 51857U 22022F   23039.28298083  .00001240  00000-0  95941-4 0  9990,2 51857  53.2174  31.2716 0001385 103.8706 256.2441 15.08851153 53124,6917.846,95.437,540.669,538.753,0.0
51857.0,STARLINK-3571,PAYLOAD,2023-02-08 09:58:15,15.08855296,0.0001335,53.2171,30.6755,88.8924,271.2221,0.0001926,2.78e-05,0.0,0 STARLINK-3571,1 51857U 22022F   23039.41545785  .00002780  00000-0  19260-3 0  9998,2 51857  53.2171  30.6755 0001335  88.8924 271.2221 15.08855296 53143,6917.834,95.437,540.622,538.775,0.0
51857.0,STARLINK-3571,PAYLOAD,2023-02-09 06:38:17,15.08841851,0.0001692,53.2178,26.8073,102.5942,257.524,-1.5882e-05,-5.41e-06,0.0,0 STARLINK-3571,1 51857U 22022F   23040.27658685 -.00000541  00000-0 -15882-4 0  9990,2 51857  53.2178  26.8073 0001692 102.5942 257.5240 15.08841851 53274,6917.875,95.437,540.91,538.569,0.0
51857.0,STARLINK-3571,PAYLOAD,2023-02-09 08:13:39,15.08851871,0.0001229,53.2176,26.5127,103.562,256.5509,0.00017984,2.576e-05,0.0,0 STARLINK-3571,1 51857U 22022F   23040.34282139  .00002576  00000-0  17984-3 0  9997,2 51857  53.2176  26.5127 0001229 103.5620 256.5509 15.08851871 53280,6917.844,95.437,540.559,538.859,0.0
51857.0,STARLINK-3571,PAYLOAD,2023-02-10 06:29:03,15.08854807,0.0001378,53.2179,22.3481,98.1153,261.9995,0.00024636,3.637e-05,0.0,0 STARLINK-3571,1 51857U 22022F   23041.27018266  .00003637  00000-0  24636-3 0  9999,2 51857  53.2179  22.3481 0001378  98.1153 261.9995 15.08854807 53422,6917.835,95.437,540.653,538.747,0.0
51857.0,STARLINK-3571,PAYLOAD,2023-02-11 04:44:28,15.08843365,0.0001395,53.2184,18.1855,113.4933,246.6206,8.5454e-05,1.072e-05,0.0,0 STARLINK-3571,1 51857U 22022F   23042.19755310  .00001072  00000-0  85454-4 0  9996,2 51857  53.2184  18.1855 0001395 113.4933 246.6206 15.08843365 53569,6917.87,95.437,540.7,538.77,0.0
51857.0,STARLINK-3571,PAYLOAD,2023-02-11 07:55:14,15.08855776,0.0001461,53.2165,17.5963,95.2642,264.8516,0.0002955,4.42e-05,0.0,0 STARLINK-3571,1 51857U 22022F   23042.33002884  .00004420  00000-0  29550-3 0  9997,2 51857  53.2165  17.5963 0001461  95.2642 264.8516 15.08855776 53586,6917.832,95.437,540.708,538.686,0.0
51857.0,STARLINK-3571,PAYLOAD,2023-02-11 15:52:09,15.08861669,0.0001195,53.2157,16.1062,83.4417,276.6711,0.00052175,8.03e-05,0.0,0 STARLINK-3571,1 51857U 22022F   23042.66122619  .00008030  00000-0  52175-3 0  9992,2 51857  53.2157  16.1062 0001195  83.4417 276.6711 15.08861669 53637,6917.814,95.436,540.506,538.852,0.0
51857.0,STARLINK-3571,PAYLOAD,2023-02-12 04:35:15,15.08846905,0.0001295,53.2171,13.7276,85.5437,274.5703,0.00030501,4.571e-05,0.0,0 STARLINK-3571,1 51857U 22022F   23043.19115363  .00004571  00000-0  30501-3 0  9994,2 51857  53.2171  13.7276 0001295  85.5437 274.5703 15.08846905 53712,6917.859,95.437,540.62,538.828,0.0
51857.0,STARLINK-3571,PAYLOAD,2023-02-12 09:21:24,15.08872023,0.0001381,53.2174,12.8347,75.9496,284.165,0.0012745,0.00020072,0.0,0 STARLINK-3571,1 51857U 22022F   23043.38986650  .00020072  00000-0  12745-2 0  9993,2 51857  53.2174  12.8347 0001381  75.9496 284.1650 15.08872023 53749,6917.783,95.436,540.603,538.692,0.0
51857.0,STARLINK-3571,PAYLOAD,2023-02-12 22:04:30,15.08834031,0.0001303,53.2173,10.4559,84.8237,275.2903,0.00023055,3.383e-05,0.0,0 STARLINK-3571,1 51857U 22022F   23043.91979472  .00003383  00000-0  23055-3 0  9999,2 51857  53.2173  10.4559 0001303  84.8237 275.2903 15.08834031 53821,6917.899,95.438,540.665,538.862,0.0
51857.0,STARLINK-3571,PAYLOAD,2023-02-13 04:26:02,15.08853272,0.0001234,53.217,9.2685,94.1637,265.9496,0.0018864,0.00029873,0.0,0 STARLINK-3571,1 51857U 22022F   23044.18475375  .00029873  00000-0  18864-2 0  9995,2 51857  53.2170   9.2685 0001234  94.1637 265.9496 15.08853272 53860,6917.84,95.437,540.558,538.851,0.0
51857.0,STARLINK-3571,PAYLOAD,2023-02-13 13:58:21,15.0884256,9.94e-05,53.2174,7.4822,72.8911,287.219,0.00077892,0.00012131,0.0,0 STARLINK-3571,1 51857U 22022F   23044.58219467  .00012131  00000-0  77892-3 0  9993,2 51857  53.2174   7.4822 0000994  72.8911 287.2190 15.08842560 53920,6917.873,95.437,540.425,539.05,0.0
51857.0,STARLINK-3571,PAYLOAD,2023-02-14 13:49:09,15.08847492,0.0001801,53.2174,3.0223,87.5628,272.557,0.0013741,0.00021653,0.0,0 STARLINK-3571,1 51857U 22022F   23045.57580264  .00021653  00000-0  13741-2 0  9990,2 51857  53.2174   3.0223 0001801  87.5628 272.5570 15.08847492 54078,6917.857,95.437,540.968,538.477,0.0
51857.0,STARLINK-3571,PAYLOAD,2023-02-15 04:07:37,15.08863629,8.89e-05,53.2164,0.3467,110.2634,249.8454,0.0025943,0.00041269,0.0,0 STARLINK-3571,1 51857U 22022F   23046.17196002  .00041269  00000-0  25943-2 0  9992,2 51857  53.2164   0.3467 0000889 110.2634 249.8454 15.08863629 54161,6917.808,95.436,540.288,539.058,0.0
51857.0,STARLINK-3571,PAYLOAD,2023-02-15 13:39:55,15.08881794,6.24e-05,53.2165,358.562,76.4138,283.6923,0.0028801,0.000459,0.0,0 STARLINK-3571,1 51857U 22022F   23046.56939617  .00045900  00000-0  28801-2 0  9994,2 51857  53.2165 358.5620 0000624  76.4138 283.6923 15.08881794 54227,6917.753,95.435,540.049,539.186,0.0
51857.0,STARLINK-3571,PAYLOAD,2023-02-15 21:36:51,15.08859972,0.0001129,53.2176,357.0772,91.5659,268.5463,0.0017301,0.00027369,0.0,0 STARLINK-3571,1 51857U 22022F   23046.90059684  .00027369  00000-0  17301-2 0  9991,2 51857  53.2176 357.0772 0001129  91.5659 268.5463 15.08859972 54277,6917.819,95.436,540.465,538.903,0.0
51857.0,STARLINK-3571,PAYLOAD,2023-02-16 07:09:09,15.08897821,0.000103,53.2154,355.2901,83.6759,276.4351,0.0031479,0.00050248,0.0,0 STARLINK-3571,1 51857U 22022F   23047.29802619  .00050248  00000-0  31479-2 0  9992,2 51857  53.2154 355.2901 0001030  83.6759 276.4351 15.08897821 54337,6917.704,95.434,540.281,538.856,0.0
51857.0,STARLINK-3571,PAYLOAD,2023-02-16 23:03:02,15.08832396,0.0001001,53.2154,352.3175,66.3681,293.7416,0.002112,0.00033477,0.0,0 STARLINK-3571,1 51857U 22022F   23047.96044359  .00033477  00000-0  21120-2 0  9992,2 51857  53.2154 352.3175 0001001  66.3681 293.7416 15.08832396 54439,6917.904,95.438,540.461,539.076,0.0
51857.0,STARLINK-3571,PAYLOAD,2023-02-17 13:21:31,15.08825982,0.0001415,53.2163,349.6399,88.2265,271.889,0.0012072,0.00018969,0.0,0 STARLINK-3571,1 51857U 22022F   23048.55661275  .00018969  00000-0  12072-2 0  9995,2 51857  53.2163 349.6399 0001415  88.2265 271.8890 15.08825982 54522,6917.923,95.438,540.767,538.809,0.0
51857.0,STARLINK-3571,PAYLOAD,2023-02-18 00:29:14,15.08824085,0.0001665,53.2175,347.5585,90.4126,269.7057,0.00079162,0.00012328,0.0,0 STARLINK-3571,1 51857U 22022F   23049.02030194  .00012328  00000-0  79162-3 0  9995,2 51857  53.2175 347.5585 0001665  90.4126 269.7057 15.08824085 54598,6917.929,95.439,540.946,538.642,0.0
51857.0,STARLINK-3571,PAYLOAD,2023-02-18 13:12:19,15.08851982,0.0001734,53.2176,345.1785,93.9139,266.2051,0.0015633,0.00024688,0.0,0 STARLINK-3571,1 51857U 22022F   23049.55022182  .00024688  00000-0  15633-2 0  9995,2 51857  53.2176 345.1785 0001734  93.9139 266.2051 15.08851982 54675,6917.844,95.437,540.908,538.509,0.0
